OBJECT_NAME,OBJECT_ID,EPOCH,MEAN_MOTION,ECCENTRICITY,INCLINATION,RA_OF_ASC_NODE,ARG_OF_PERICENTER,MEAN_ANOMALY,EPHEMERIS_TYPE,CLASSIFICATION_TYPE,NORAD_CAT_ID,ELEMENT_SET_NO,REV_AT_EPOCH,BSTAR,MEAN_MOTION_DOT,MEAN_MOTION_DDOT
ONEWEB-0230,2021-045C,2026-07-17T03:09:07.714656,13.15548686,.0001931,87.8978,253.2371,96.1858,263.9492,0,U,48769,999,24860,.22208E-3,.96E-6,0
ONEWEB-0237,2021-045D,2026-07-17T02:53:08.983968,13.15548446,.0002378,87.8983,253.2412,94.8968,265.2434,0,U,48770,999,24832,.38729E-4,.27E-6,0
ONEWEB-0235,2021-045E,2026-07-16T15:19:29.003232,13.15550006,.0002254,87.8991,253.3254,107.7272,252.4104,0,U,48771,999,24825,-.33542E-3,-.113E-5,0
ONEWEB-0242,2021-045F,2026-07-17T02:07:31.133856,13.15548863,.0001997,87.8995,253.2329,103.0317,257.1037,0,U,48772,999,24835,.10749E-3,.53E-6,0
ONEWEB-0241,2021-045G,2026-07-17T01:49:17.264064,13.15538925,.0002407,87.8983,253.2504,104.6405,255.4992,0,U,48773,999,24826,.39593E-3,.162E-5,0
ONEWEB-0243,2021-045H,2026-07-17T02:34:52.483296,13.15551133,.0001928,87.8980,253.2570,111.8859,248.2476,0,U,48774,999,24829,-.10063E-3,-.25E-6,0
ONEWEB-0222,2021-045J,2026-07-17T02:10:56.134272,13.15547104,.0002219,87.8992,253.2298,101.3166,258.8214,0,U,48775,999,24833,-.69335E-4,-.13E-6,0
ONEWEB-0244,2021-045K,2026-07-16T15:51:27.451296,13.15547794,.0002126,87.8995,253.3122,101.4832,258.6537,0,U,48776,999,24884,-.61699E-4,-.1E-6,0
ONEWEB-0247,2021-045L,2026-07-17T02:43:59.860128,13.15552389,.0002182,87.8983,253.2502,120.8040,239.3305,0,U,48777,999,24834,-.25495E-2,-.947E-5,0
ONEWEB-0245,2021-045M,2026-07-17T02:37:09.665760,13.15549376,.0002238,87.8990,253.2331,98.9950,261.1434,0,U,48778,999,24831,-.24403E-3,-.79E-6,0
ONEWEB-0229,2021-045N,2026-07-17T02:30:20.121120,13.15548006,.0001996,87.8989,253.2313,99.7364,260.3992,0,U,48779,999,24834,-.30611E-3,-.102E-5,0
ONEWEB-0228,2021-045P,2026-07-17T03:18:26.505792,13.15548997,.0002094,87.8994,253.2191,99.5965,260.5402,0,U,48780,999,24826,.44302E-3,.18E-5,0
ONEWEB-0232,2021-045Q,2026-07-17T02:41:44.995776,13.15547531,.0002141,87.8992,253.2245,96.8341,263.3033,0,U,48781,999,24858,-.31291E-3,-.105E-5,0
ONEWEB-0231,2021-045R,2026-07-16T17:02:11.288832,13.15547626,.0002258,87.8992,253.3159,103.1127,257.0255,0,U,48782,999,24822,-.3119E-3,-.105E-5,0
ONEWEB-0234,2021-045S,2026-07-17T03:04:22.046880,13.15547474,.0002696,87.8992,253.2152,85.1685,274.9753,0,U,48783,999,24841,.16275E-3,.74E-6,0
ONEWEB-0238,2021-045T,2026-07-17T03:04:44.243904,13.15548629,.0002403,87.8992,253.2113,91.1590,268.9815,0,U,48784,999,24831,.25032E-3,.107E-5,0
ONEWEB-0240,2021-045U,2026-07-16T16:38:13.102944,13.15549574,.0002354,87.8995,253.3074,101.7824,258.3571,0,U,48785,999,24828,.1751E-3,.79E-6,0
ONEWEB-0246,2021-045V,2026-07-17T03:27:22.752576,13.15548038,.000201,87.8994,253.2212,100.8004,259.3353,0,U,48786,999,24821,.53535E-3,.214E-5,0
ONEWEB-0210,2021-045W,2026-07-17T02:50:52.198080,13.15548058,.0001892,87.8992,253.2238,122.5505,237.5808,0,U,48787,999,24825,.54571E-4,.33E-6,0
ONEWEB-0214,2021-045X,2026-07-17T03:03:24.399936,13.15547217,.0001778,87.8988,253.2193,103.5621,256.5708,0,U,48788,999,24822,.22702E-3,.98E-6,0
ONEWEB-0221,2021-045Y,2026-07-16T16:16:33.435264,13.15556810,.0002106,87.8994,253.3169,108.3425,251.7934,0,U,48789,999,24825,-.42258E-2,-.1578E-4,0
ONEWEB-0213,2021-045Z,2026-07-17T02:57:42.981696,13.15548664,.0002109,87.8988,253.2311,105.7840,254.3523,0,U,48790,999,24837,.12863E-3,.61E-6,0
ONEWEB-0212,2021-045AA,2026-07-16T15:27:28.948320,13.15546749,.0002146,87.8992,253.3210,96.6558,263.4816,0,U,48791,999,24830,-.36901E-3,-.126E-5,0
ONEWEB-0227,2021-045AB,2026-07-17T02:23:29.353056,13.15548232,.0002123,87.8989,253.2302,98.7676,261.3695,0,U,48792,999,24831,-.23874E-3,-.77E-6,0
ONEWEB-0226,2021-045AC,2026-07-17T02:14:21.652224,13.15548389,.0002032,87.8990,253.2360,103.8240,256.3117,0,U,48793,999,24828,-.66173E-4,-.12E-6,0
ONEWEB-0224,2021-045AD,2026-07-17T03:11:24.688032,13.15548615,.0002981,87.8981,253.2606,96.6448,263.5022,0,U,48794,999,24821,.40845E-3,.167E-5,0
ONEWEB-0233,2021-045AE,2026-07-17T03:18:02.491776,13.15550569,.0002279,87.8980,253.2669,103.6066,256.5319,0,U,48795,999,24823,.43248E-3,.176E-5,0
ONEWEB-0190,2021-045AF,2026-07-17T02:59:59.746848,13.15549312,.0002324,87.8989,253.2329,114.5599,245.5774,0,U,48796,999,24830,-.47096E-4,-.5E-7,0
ONEWEB-0236,2021-045AG,2026-07-16T16:27:57.997152,13.15548637,.0002125,87.8984,253.3280,95.1104,265.0268,0,U,48797,999,24813,.50004E-3,.201E-5,0
ONEWEB-0248,2021-045AH,2026-07-17T01:53:49.265088,13.15549452,.0002469,87.8993,253.2363,105.4740,254.6663,0,U,48798,999,24834,.35933E-3,.148E-5,0
